{
  "type": "FeatureCollection",
  "features": [
    {
      "type": "Feature",
      "properties": {
        "norad_id": 43564,
        "name": "GSAT0221 (GALILEO 25)",
        "group": "galileo",
        "lat": 2.7078225262220217,
        "lon": 164.7886509565454,
        "alt_km": 23228.39175963972,
        "timestamp": "2025-12-22T18:58:53.697703+00:00",
        "meta_object_name": "GSAT0221 (GALILEO 25)",
        "meta_object_id": "2018-060A",
        "meta_epoch": "2025-12-19T13:40:28.820064",
        "meta_mean_motion": 1.70475889,
        "meta_eccentricity": 0.0006721,
        "meta_inclination": 57.2264,
        "meta_ra_of_asc_node": 346.6332,
        "meta_arg_of_pericenter": 285.6827,
        "meta_mean_anomaly": 74.2548,
        "meta_ephemeris_type": 0,
        "meta_classification_type": "U",
        "meta_norad_cat_id": 43564,
        "meta_element_set_no": 999,
        "meta_rev_at_epoch": 4610,
        "meta_bstar": 0,
        "meta_mean_motion_dot": -7.2e-07,
        "meta_mean_motion_ddot": 0,
        "tle_line1": "1 43564U 18060A   25353.56977801 -.00000072  00000+0  00000+0 0  9996",
        "tle_line2": "2 43564  57.2264 346.6332 0006721 285.6827  74.2548  1.70475889 46101"
      },
      "geometry": {
        "type": "Point",
        "coordinates": [
          164.7886509565454,
          2.7078225262220217
        ]
      }
    },
    {
      "type": "Feature",
      "properties": {
        "norad_id": 43565,
        "name": "GSAT0222 (GALILEO 26)",
        "group": "galileo",
        "lat": 34.41113907856404,
        "lon": 12.722274902832668,
        "alt_km": 23230.706815640933,
        "timestamp": "2025-12-22T18:58:53.697714+00:00",
        "meta_object_name": "GSAT0222 (GALILEO 26)",
        "meta_object_id": "2018-060B",
        "meta_epoch": "2025-12-20T23:05:42.344160",
        "meta_mean_motion": 1.70475571,
        "meta_eccentricity": 0.0006061,
        "meta_inclination": 57.2294,
        "meta_ra_of_asc_node": 346.5987,
        "meta_arg_of_pericenter": 266.4874,
        "meta_mean_anomaly": 93.4525,
        "meta_ephemeris_type": 0,
        "meta_classification_type": "U",
        "meta_norad_cat_id": 43565,
        "meta_element_set_no": 999,
        "meta_rev_at_epoch": 4617,
        "meta_bstar": 0,
        "meta_mean_motion_dot": -6.8e-07,
        "meta_mean_motion_ddot": 0,
        "tle_line1": "1 43565U 18060B   25354.96229565 -.00000068  00000+0  00000+0 0  9994",
        "tle_line2": "2 43565  57.2294 346.5987 0006061 266.4874  93.4525  1.70475571 46179"
      },
      "geometry": {
        "type": "Point",
        "coordinates": [
          12.722274902832668,
          34.41113907856404
        ]
      }
    },
    {
      "type": "Feature",
      "properties": {
        "norad_id": 43566,
        "name": "GSAT0219 (GALILEO 23)",
        "group": "galileo",
        "lat": -57.04270821163576,
        "lon": -109.9459637711705,
        "alt_km": 23212.060465615898,
        "timestamp": "2025-12-22T18:58:53.697725+00:00",
        "meta_object_name": "GSAT0219 (GALILEO 23)",
        "meta_object_id": "2018-060C",
        "meta_epoch": "2025-12-18T20:05:25.027008",
        "meta_mean_motion": 1.70475846,
        "meta_eccentricity": 0.00058667,
        "meta_inclination": 57.2292,
        "meta_ra_of_asc_node": 346.6575,
        "meta_arg_of_pericenter": 289.8664,
        "meta_mean_anomaly": 70.0835,
        "meta_ephemeris_type": 0,
        "meta_classification_type": "U",
        "meta_norad_cat_id": 43566,
        "meta_element_set_no": 999,
        "meta_rev_at_epoch": 4611,
        "meta_bstar": 0,
        "meta_mean_motion_dot": -7.4e-07,
        "meta_mean_motion_ddot": 0,
        "tle_line1": "1 43566U 18060C   25352.83709522 -.00000074  00000+0  00000+0 0  9992",
        "tle_line2": "2 43566  57.2292 346.6575 0005866 289.8664  70.0835  1.70475846 46114"
      },
      "geometry": {
        "type": "Point",
        "coordinates": [
          -109.9459637711705,
          -57.04270821163576
        ]
      }
    },
    {
      "type": "Feature",
      "properties": {
        "norad_id": 43567,
        "name": "GSAT0220 (GALILEO 24)",
        "group": "galileo",
        "lat": 39.449444022206706,
        "lon": 134.5282068541682,
        "alt_km": 23233.860089997932,
        "timestamp": "2025-12-22T18:58:53.697736+00:00",
        "meta_object_name": "GSAT0220 (GALILEO 24)",
        "meta_object_id": "2018-060D",
        "meta_epoch": "2025-12-19T15:28:13.770912",
        "meta_mean_motion": 1.70475932,
        "meta_eccentricity": 0.000607,
        "meta_inclination": 57.2288,
        "meta_ra_of_asc_node": 346.6359,
        "meta_arg_of_pericenter": 288.3471,
        "meta_mean_anomaly": 71.5983,
        "meta_ephemeris_type": 0,
        "meta_classification_type": "U",
        "meta_norad_cat_id": 43567,
        "meta_element_set_no": 999,
        "meta_rev_at_epoch": 4611,
        "meta_bstar": 0,
        "meta_mean_motion_dot": -7.2e-07,
        "meta_mean_motion_ddot": 0,
        "tle_line1": "1 43567U 18060D   25353.64460383 -.00000072  00000+0  00000+0 0  9990",
        "tle_line2": "2 43567  57.2288 346.6359 0006070 288.3471  71.5983  1.70475932 46114"
      },
      "geometry": {
        "type": "Point",
        "coordinates": [
          134.5282068541682,
          39.449444022206706
        ]
      }
    },
    {
      "type": "Feature",
      "properties": {
        "norad_id": 49809,
        "name": "GSAT0223 (GALILEO 27)",
        "group": "galileo",
        "lat": -33.96822461871339,
        "lon": -167.8366795798289,
        "alt_km": 23215.244265578585,
        "timestamp": "2025-12-22T18:58:53.697748+00:00",
        "meta_object_name": "GSAT0223 (GALILEO 27)",
        "meta_object_id": "2021-116A",
        "meta_epoch": "2025-12-19T11:56:47.637312",
        "meta_mean_motion": 1.7047609,
        "meta_eccentricity": 0.00044147,
        "meta_inclination": 57.2179,
        "meta_ra_of_asc_node": 346.5305,
        "meta_arg_of_pericenter": 254.6091,
        "meta_mean_anomaly": 105.9777,
        "meta_ephemeris_type": 0,
        "meta_classification_type": "U",
        "meta_norad_cat_id": 49809,
        "meta_element_set_no": 999,
        "meta_rev_at_epoch": 2512,
        "meta_bstar": 0,
        "meta_mean_motion_dot": -7.2e-07,
        "meta_mean_motion_ddot": 0,
        "tle_line1": "1 49809U 21116A   25353.49777358 -.00000072  00000+0  00000+0 0  9997",
        "tle_line2": "2 49809  57.2179 346.5305 0004414 254.6091 105.9777  1.70476090 25129"
      },
      "geometry": {
        "type": "Point",
        "coordinates": [
          -167.8366795798289,
          -33.96822461871339
        ]
      }
    },
    {
      "type": "Feature",
      "properties": {
        "norad_id": 49810,
        "name": "GSAT0224 (GALILEO 28)",
        "group": "galileo",
        "lat": -21.39242437192173,
        "lon": -28.19416084100214,
        "alt_km": 23221.902728245317,
        "timestamp": "2025-12-22T18:58:53.697760+00:00",
        "meta_object_name": "GSAT0224 (GALILEO 28)",
        "meta_object_id": "2021-116B",
        "meta_epoch": "2025-12-20T04:43:34.979232",
        "meta_mean_motion": 1.70476091,
        "meta_eccentricity": 0.0003747,
        "meta_inclination": 57.2188,
        "meta_ra_of_asc_node": 346.5104,
        "meta_arg_of_pericenter": 259.7047,
        "meta_mean_anomaly": 282.5653,
        "meta_ephemeris_type": 0,
        "meta_classification_type": "U",
        "meta_norad_cat_id": 49810,
        "meta_element_set_no": 999,
        "meta_rev_at_epoch": 2515,
        "meta_bstar": 0,
        "meta_mean_motion_dot": -7e-07,
        "meta_mean_motion_ddot": 0,
        "tle_line1": "1 49810U 21116B   25354.19693263 -.00000070  00000+0  00000+0 0  9997",
        "tle_line2": "2 49810  57.2188 346.5104 0003747 259.7047 282.5653  1.70476091 25152"
      },
      "geometry": {
        "type": "Point",
        "coordinates": [
          -28.19416084100214,
          -21.39242437192173
        ]
      }
    },
    {
      "type": "Feature",
      "properties": {
        "norad_id": 59598,
        "name": "GSAT0225 (GALILEO 29)",
        "group": "galileo",
        "lat": -26.654235674297006,
        "lon": 85.45953477400359,
        "alt_km": 23230.511574905453,
        "timestamp": "2025-12-22T18:58:53.697771+00:00",
        "meta_object_name": "GSAT0225 (GALILEO 29)",
        "meta_object_id": "2024-079A",
        "meta_epoch": "2025-12-22T06:14:03.688224",
        "meta_mean_motion": 1.70474978,
        "meta_eccentricity": 0.00022203,
        "meta_inclination": 55.0066,
        "meta_ra_of_asc_node": 106.0297,
        "meta_arg_of_pericenter": 187.8094,
        "meta_mean_anomaly": 172.9873,
        "meta_ephemeris_type": 0,
        "meta_classification_type": "U",
        "meta_norad_cat_id": 59598,
        "meta_element_set_no": 999,
        "meta_rev_at_epoch": 1030,
        "meta_bstar": 0,
        "meta_mean_motion_dot": 6e-08,
        "meta_mean_motion_ddot": 0,
        "tle_line1": "1 59598U 24079A   25356.25976491  .00000006  00000+0  00000+0 0  9996",
        "tle_line2": "2 59598  55.0066 106.0297 0002220 187.8094 172.9873  1.70474978 10306"
      },
      "geometry": {
        "type": "Point",
        "coordinates": [
          85.45953477400359,
          -26.654235674297006
        ]
      }
    }
  ]
}